[{"OBJECT_NAME":"AE1D","OBJECT_ID":"2025-009K","EPOCH":"2026-03-09T16:59:52.875168","MEAN_MOTION":15.46504866,"ECCENTRICITY":0.00028074,"INCLINATION":97.3999,"RA_OF_ASC_NODE":155.4222,"ARG_OF_PERICENTER":303.815,"MEAN_ANOMALY":56.2832,"EPHEMERIS_TYPE":0,"CLASSIFICATION_TYPE":"U","NORAD_CAT_ID":62618,"ELEMENT_SET_NO":999,"REV_AT_EPOCH":6400,"BSTAR":0.0012159067,"MEAN_MOTION_DOT":0.00060646,"MEAN_MOTION_DDOT":0},{"OBJECT_NAME":"ELECTRON KICK STAGE R\/B","OBJECT_ID":"2024-034B","EPOCH":"2026-03-09T15:37:28.811424","MEAN_MOTION":15.49799127,"ECCENTRICITY":0.00156115,"INCLINATION":98.1915,"RA_OF_ASC_NODE":115.7194,"ARG_OF_PERICENTER":36.9527,"MEAN_ANOMALY":323.2794,"EPHEMERIS_TYPE":0,"CLASSIFICATION_TYPE":"U","NORAD_CAT_ID":58993,"ELEMENT_SET_NO":999,"REV_AT_EPOCH":11404,"BSTAR":0.001109592,"MEAN_MOTION_DOT":0.00062341,"MEAN_MOTION_DDOT":0}]
